start=new Date('2021-09-19T00:00:00.000Z').valueOf();
sats=[{"TLE_LINE1":"1 45066U 20006Y   21261.67902997  .00001170  00000-0  97439-4 0  9995","MEAN_ELEMENT_THEORY":"SGP4","MEAN_ANOMALY":"248.9459","PERIOD":"95.592","TIME_SYSTEM":"UTC","RA_OF_ASC_NODE":"37.4948","CLASSIFICATION_TYPE":"U","DECAY_DATE":null,"TLE_LINE2":"2 45066  53.0562  37.4948 0001278 111.1666 248.9459 15.06399577 90607","EPHEMERIS_TYPE":"0","APOAPSIS":"548.100","MEAN_MOTION":"15.06399577","CENTER_NAME":"EARTH","GP_ID":"184971598","MEAN_MOTION_DOT":"0.00001170","SEMIMAJOR_AXIS":"6925.350","REV_AT_EPOCH":"9060","OBJECT_ID":"2020-006Y","SITE":"AFETR","EPOCH":"2021-09-18T16:17:48.189408","PERIAPSIS":"546.330","FILE":"3118781","NORAD_CAT_ID":"45066","OBJECT_TYPE":"PAYLOAD","OBJECT_NAME":"STARLINK-1145","ECCENTRICITY":"0.00012780","ELEMENT_SET_NO":"999","MEAN_MOTION_DDOT":"0.0000000000000","ARG_OF_PERICENTER":"111.1666","BSTAR":"0.00009743900000","COUNTRY_CODE":"US","LAUNCH_DATE":"2020-01-29","RCS_SIZE":"LARGE","REF_FRAME":"TEME","INCLINATION":"53.0562"},{"INCLINATION":"53.0550","LAUNCH_DATE":"2020-01-29","COUNTRY_CODE":"US","RCS_SIZE":"LARGE","REF_FRAME":"TEME","ECCENTRICITY":"0.00013830","OBJECT_NAME":"STARLINK-1150","MEAN_MOTION_DDOT":"0.0000000000000","ARG_OF_PERICENTER":"90.0588","BSTAR":"0.00007315700000","ELEMENT_SET_NO":"999","PERIAPSIS":"546.266","SITE":"AFETR","EPOCH":"2021-09-18T13:27:57.534912","OBJECT_ID":"2020-006Z","OBJECT_TYPE":"PAYLOAD","FILE":"3118594","NORAD_CAT_ID":"45067","GP_ID":"184945718","CENTER_NAME":"EARTH","MEAN_MOTION":"15.06396794","APOAPSIS":"548.181","SEMIMAJOR_AXIS":"6925.358","REV_AT_EPOCH":"9059","MEAN_MOTION_DOT":"0.00000808","DECAY_DATE":null,"CLASSIFICATION_TYPE":"U","TLE_LINE2":"2 45067  53.0550  38.0189 0001383  90.0588 270.0559 15.06396794 90597","EPHEMERIS_TYPE":"0","RA_OF_ASC_NODE":"38.0189","TIME_SYSTEM":"UTC","PERIOD":"95.592","TLE_LINE1":"1 45067U 20006Z   21261.56108258  .00000808  00000-0  73157-4 0  9990","MEAN_ANOMALY":"270.0559","MEAN_ELEMENT_THEORY":"SGP4"},{"ECCENTRICITY":"0.00013940","OBJECT_NAME":"STARLINK-1161","BSTAR":"0.00004064200000","MEAN_MOTION_DDOT":"0.0000000000000","ARG_OF_PERICENTER":"108.7180","ELEMENT_SET_NO":"999","PERIAPSIS":"546.265","SITE":"AFETR","EPOCH":"2021-09-18T17:58:39.799200","OBJECT_ID":"2020-006AA","OBJECT_TYPE":"PAYLOAD","FILE":"3118781","NORAD_CAT_ID":"45068","INCLINATION":"53.0559","LAUNCH_DATE":"2020-01-29","COUNTRY_CODE":"US","RCS_SIZE":"LARGE","REF_FRAME":"TEME","RA_OF_ASC_NODE":"37.1862","TIME_SYSTEM":"UTC","PERIOD":"95.592","TLE_LINE1":"1 45068U 20006AA  21261.74907175  .00000324  00000-0  40642-4 0  9992","MEAN_ANOMALY":"251.3961","MEAN_ELEMENT_THEORY":"SGP4","CENTER_NAME":"EARTH","GP_ID":"184972100","MEAN_MOTION":"15.06394601","APOAPSIS":"548.196","SEMIMAJOR_AXIS":"6925.365","REV_AT_EPOCH":"9061","MEAN_MOTION_DOT":"0.00000324","CLASSIFICATION_TYPE":"U","DECAY_DATE":null,"TLE_LINE2":"2 45068  53.0559  37.1862 0001394 108.7180 251.3961 15.06394601 90619","EPHEMERIS_TYPE":"0"},{"MEAN_ELEMENT_THEORY":"SGP4","MEAN_ANOMALY":"254.1254","TLE_LINE1":"1 45071U 20006AD  21261.66060305  .00001267  00000-0  10391-3 0  9996","RA_OF_ASC_NODE":"37.5764","PERIOD":"95.592","TIME_SYSTEM":"UTC","EPHEMERIS_TYPE":"0","TLE_LINE2":"2 45071  53.0560  37.5764 0001566 105.9908 254.1254 15.06405199 90608","CLASSIFICATION_TYPE":"U","DECAY_DATE":null,"SEMIMAJOR_AXIS":"6925.333","REV_AT_EPOCH":"9060","MEAN_MOTION_DOT":"0.00001267","GP_ID":"184972851","CENTER_NAME":"EARTH","APOAPSIS":"548.282","MEAN_MOTION":"15.06405199","OBJECT_TYPE":"PAYLOAD","FILE":"3118781","NORAD_CAT_ID":"45071","EPOCH":"2021-09-18T15:51:16.103520","SITE":"AFETR","PERIAPSIS":"546.113","OBJECT_ID":"2020-006AD","MEAN_MOTION_DDOT":"0.0000000000000","BSTAR":"0.00010391000000","ARG_OF_PERICENTER":"105.9908","ELEMENT_SET_NO":"999","ECCENTRICITY":"0.00015660","OBJECT_NAME":"STARLINK-1167","REF_FRAME":"TEME","RCS_SIZE":"LARGE","COUNTRY_CODE":"US","LAUNCH_DATE":"2020-01-29","INCLINATION":"53.0560"},{"BSTAR":"0.00009966800000","MEAN_MOTION_DDOT":"0.0000000000000","ARG_OF_PERICENTER":"102.1946","ELEMENT_SET_NO":"999","ECCENTRICITY":"0.00014710","OBJECT_NAME":"STARLINK-1168","OBJECT_TYPE":"PAYLOAD","NORAD_CAT_ID":"45072","FILE":"3118781","PERIAPSIS":"546.202","SITE":"AFETR","EPOCH":"2021-09-18T15:56:35.031840","OBJECT_ID":"2020-006AE","INCLINATION":"53.0566","REF_FRAME":"TEME","RCS_SIZE":"LARGE","LAUNCH_DATE":"2020-01-29","COUNTRY_CODE":"US","RA_OF_ASC_NODE":"37.5679","TIME_SYSTEM":"UTC","PERIOD":"95.592","MEAN_ANOMALY":"257.9208","MEAN_ELEMENT_THEORY":"SGP4","TLE_LINE1":"1 45072U 20006AE  21261.66429435  .00001203  00000-0  99668-4 0  9995","SEMIMAJOR_AXIS":"6925.355","REV_AT_EPOCH":"9060","MEAN_MOTION_DOT":"0.00001203","GP_ID":"184971098","CENTER_NAME":"EARTH","MEAN_MOTION":"15.06397745","APOAPSIS":"548.239","EPHEMERIS_TYPE":"0","TLE_LINE2":"2 45072  53.0566  37.5679 0001471 102.1946 257.9208 15.06397745 90603","DECAY_DATE":null,"CLASSIFICATION_TYPE":"U"},{"ELEMENT_SET_NO":"999","BSTAR":"-0.00004738900000","MEAN_MOTION_DDOT":"0.0000000000000","ARG_OF_PERICENTER":"114.8807","OBJECT_NAME":"STARLINK-1170","ECCENTRICITY":"0.00013210","NORAD_CAT_ID":"45073","FILE":"3118594","OBJECT_TYPE":"PAYLOAD","OBJECT_ID":"2020-006AF","EPOCH":"2021-09-18T13:22:39.200160","SITE":"AFETR","PERIAPSIS":"546.330","INCLINATION":"53.0552","RCS_SIZE":"LARGE","REF_FRAME":"TEME","COUNTRY_CODE":"US","LAUNCH_DATE":"2020-01-29","PERIOD":"95.593","TIME_SYSTEM":"UTC","RA_OF_ASC_NODE":"38.0338","MEAN_ELEMENT_THEORY":"SGP4","MEAN_ANOMALY":"245.2320","TLE_LINE1":"1 45073U 20006AF  21261.55739815 -.00000987  00000-0 -47389-4 0  9993","MEAN_MOTION_DOT":"-0.00000987","REV_AT_EPOCH":"9058","SEMIMAJOR_AXIS":"6925.380","APOAPSIS":"548.160","MEAN_MOTION":"15.06389695","GP_ID":"184945219","CENTER_NAME":"EARTH","EPHEMERIS_TYPE":"0","TLE_LINE2":"2 45073  53.0552  38.0338 0001321 114.8807 245.2320 15.06389695 90584","DECAY_DATE":null,"CLASSIFICATION_TYPE":"U"},{"INCLINATION":"53.0574","RCS_SIZE":"LARGE","REF_FRAME":"TEME","LAUNCH_DATE":"2020-01-29","COUNTRY_CODE":"US","ELEMENT_SET_NO":"999","MEAN_MOTION_DDOT":"0.0000000000000","BSTAR":"-0.00003918000000","ARG_OF_PERICENTER":"102.2148","OBJECT_NAME":"STARLINK-1172","ECCENTRICITY":"0.00015240","NORAD_CAT_ID":"45074","FILE":"3118781","OBJECT_TYPE":"PAYLOAD","OBJECT_ID":"2020-006AG","PERIAPSIS":"546.175","EPOCH":"2021-09-18T17:48:02.687328","SITE":"AFETR","MEAN_MOTION_DOT":"-0.00000865","SEMIMAJOR_AXIS":"6925.365","REV_AT_EPOCH":"9061","MEAN_MOTION":"15.06394516","APOAPSIS":"548.286","CENTER_NAME":"EARTH","GP_ID":"184972601","TLE_LINE2":"2 45074  53.0574  37.2172 0001524 102.2148 257.9012 15.06394516 90610","EPHEMERIS_TYPE":"0","DECAY_DATE":null,"CLASSIFICATION_TYPE":"U","TIME_SYSTEM":"UTC","PERIOD":"95.592","RA_OF_ASC_NODE":"37.2172","MEAN_ANOMALY":"257.9012","MEAN_ELEMENT_THEORY":"SGP4","TLE_LINE1":"1 45074U 20006AG  21261.74169777 -.00000865  00000-0 -39180-4 0  9994"},{"MEAN_ANOMALY":"250.8364","MEAN_ELEMENT_THEORY":"SGP4","TLE_LINE1":"1 45075U 20006AH  21261.64216225  .00001109  00000-0  93331-4 0  9993","RA_OF_ASC_NODE":"37.6619","TIME_SYSTEM":"UTC","PERIOD":"95.592","TLE_LINE2":"2 45075  53.0565  37.6619 0001353 109.2772 250.8364 15.06404777 90603","EPHEMERIS_TYPE":"0","CLASSIFICATION_TYPE":"U","DECAY_DATE":null,"REV_AT_EPOCH":"9060","SEMIMAJOR_AXIS":"6925.334","MEAN_MOTION_DOT":"0.00001109","GP_ID":"184972351","CENTER_NAME":"EARTH","MEAN_MOTION":"15.06404777","APOAPSIS":"548.136","OBJECT_TYPE":"PAYLOAD","FILE":"3118781","NORAD_CAT_ID":"45075","PERIAPSIS":"546.262","SITE":"AFETR","EPOCH":"2021-09-18T15:24:42.818400","OBJECT_ID":"2020-006AH","BSTAR":"0.00009333100000","MEAN_MOTION_DDOT":"0.0000000000000","ARG_OF_PERICENTER":"109.2772","ELEMENT_SET_NO":"999","ECCENTRICITY":"0.00013530","OBJECT_NAME":"STARLINK-1174","REF_FRAME":"TEME","RCS_SIZE":"LARGE","LAUNCH_DATE":"2020-01-29","COUNTRY_CODE":"US","INCLINATION":"53.0565"},{"PERIOD":"95.592","TIME_SYSTEM":"UTC","RA_OF_ASC_NODE":"37.6235","TLE_LINE1":"1 45076U 20006AJ  21261.64954430 -.00000485  00000-0 -13648-4 0  9992","MEAN_ELEMENT_THEORY":"SGP4","MEAN_ANOMALY":"249.6354","APOAPSIS":"548.171","MEAN_MOTION":"15.06394373","CENTER_NAME":"EARTH","GP_ID":"184971599","MEAN_MOTION_DOT":"-0.00000485","SEMIMAJOR_AXIS":"6925.366","REV_AT_EPOCH":"9060","DECAY_DATE":null,"CLASSIFICATION_TYPE":"U","TLE_LINE2":"2 45076  53.0555  37.6235 0001358 110.4781 249.6354 15.06394373 90601","EPHEMERIS_TYPE":"0","OBJECT_NAME":"STARLINK-1180","ECCENTRICITY":"0.00013580","ELEMENT_SET_NO":"999","ARG_OF_PERICENTER":"110.4781","MEAN_MOTION_DDOT":"0.0000000000000","BSTAR":"-0.00001364800000","OBJECT_ID":"2020-006AJ","EPOCH":"2021-09-18T15:35:20.627520","SITE":"AFETR","PERIAPSIS":"546.290","FILE":"3118781","NORAD_CAT_ID":"45076","OBJECT_TYPE":"PAYLOAD","INCLINATION":"53.0555","COUNTRY_CODE":"US","LAUNCH_DATE":"2020-01-29","RCS_SIZE":"LARGE","REF_FRAME":"TEME"},{"INCLINATION":"53.0567","LAUNCH_DATE":"2020-01-29","COUNTRY_CODE":"US","REF_FRAME":"TEME","RCS_SIZE":"LARGE","OBJECT_NAME":"STARLINK-1182","ECCENTRICITY":"0.00013180","ELEMENT_SET_NO":"999","ARG_OF_PERICENTER":"80.6678","MEAN_MOTION_DDOT":"0.0000000000000","BSTAR":"0.00008907800000","OBJECT_ID":"2020-006AK","PERIAPSIS":"445.518","SITE":"AFETR","EPOCH":"2021-09-18T17:36:43.577280","NORAD_CAT_ID":"45077","FILE":"3118781","OBJECT_TYPE":"PAYLOAD","MEAN_MOTION":"15.39896322","APOAPSIS":"447.317","GP_ID":"184971850","CENTER_NAME":"EARTH","MEAN_MOTION_DOT":"0.00003196","SEMIMAJOR_AXIS":"6824.553","REV_AT_EPOCH":"9077","DECAY_DATE":null,"CLASSIFICATION_TYPE":"U","EPHEMERIS_TYPE":"0","TLE_LINE2":"2 45077  53.0567  25.9462 0001318  80.6678 279.4475 15.39896322 90776","TIME_SYSTEM":"UTC","PERIOD":"93.513","RA_OF_ASC_NODE":"25.9462","TLE_LINE1":"1 45077U 20006AK  21261.73383770  .00003196  00000-0  89078-4 0  9996","MEAN_ANOMALY":"279.4475","MEAN_ELEMENT_THEORY":"SGP4"}];
